ONEWEB-0656             
1 55817U 23029X   25116.69325395  .00000161  00000+0  36440-3 0  9996
2 55817  87.9312 357.3453 0002267  87.7688 272.3705 13.20771537106176
ONEWEB-0657             
1 55818U 23029Y   25116.76297397  .00000114  00000+0  25126-3 0  9992
2 55818  87.9264  27.7624 0002094 102.0036 258.1331 13.19725796103984
ONEWEB-0658             
1 55819U 23029Z   25117.44057968  .00000045  00000+0  79933-4 0  9996
2 55819  87.9262  27.5618 0001345  75.0960 285.0321 13.19727133104769
ONEWEB-0660             
1 55820U 23029AA  25116.76238068  .00000180  00000+0  45206-3 0  9999
2 55820  87.9085  12.5097 0001765  66.7068 293.4247 13.14503097104699
ONEWEB-0661             
1 55821U 23029AB  25116.72114731 -.00000034  00000+0 -12642-3 0  9994
2 55821  87.9091  12.5882 0001878  69.3572 290.7759 13.14502930104674
ONEWEB-0662             
1 55822U 23029AC  25116.75603284  .00000018  00000+0  12809-4 0  9990
2 55822  87.9088  12.5878 0001676  68.1173 292.0135 13.14502707104727
ONEWEB-0663             
1 55823U 23029AD  25116.67688626 -.00000062  00000+0 -18443-3 0  9995
2 55823  87.9311 357.4047 0001555  67.4725 292.6573 13.20834917106167
ONEWEB-0664             
1 55824U 23029AE  25116.90789600  .00000074  00000+0  15133-3 0  9990
2 55824  87.9312 357.3789 0002171  74.8161 285.3213 13.20773249106195
