<?xml version="1.0" encoding="UTF-8"?>
<ndm xmlns:xsi="http://www.w3.org/2001/XMLSchema-instance" xsi:noNamespaceSchemaLocation="https://sanaregistry.org/r/ndmxml_unqualified/ndmxml-2.0.0-master-2.0.xsd">
<omm id="CCSDS_OMM_VERS" version="2.0">
<header><CREATION_DATE/><ORIGINATOR/></header><body><segment><metadata><OBJECT_NAME>ONEWEB-0656</OBJECT_NAME><OBJECT_ID>2023-029X</OBJECT_ID><CENTER_NAME>EARTH</CENTER_NAME><REF_FRAME>TEME</REF_FRAME><TIME_SYSTEM>UTC</TIME_SYSTEM><MEAN_ELEMENT_THEORY>SGP4</MEAN_ELEMENT_THEORY></metadata><data><meanElements><EPOCH>2025-04-26T16:38:17.141280</EPOCH><MEAN_MOTION>13.20771537</MEAN_MOTION><ECCENTRICITY>.0002267</ECCENTRICITY><INCLINATION>87.9312</INCLINATION><RA_OF_ASC_NODE>357.3453</RA_OF_ASC_NODE><ARG_OF_PERICENTER>87.7688</ARG_OF_PERICENTER><MEAN_ANOMALY>272.3705</MEAN_ANOMALY></meanElements><tleParameters><EPHEMERIS_TYPE>0</EPHEMERIS_TYPE><CLASSIFICATION_TYPE>U</CLASSIFICATION_TYPE><NORAD_CAT_ID>55817</NORAD_CAT_ID><ELEMENT_SET_NO>999</ELEMENT_SET_NO><REV_AT_EPOCH>10617</REV_AT_EPOCH><BSTAR>.3644E-3</BSTAR><MEAN_MOTION_DOT>.161E-5</MEAN_MOTION_DOT><MEAN_MOTION_DDOT>0</MEAN_MOTION_DDOT></tleParameters></data></segment></body></omm>
<omm id="CCSDS_OMM_VERS" version="2.0">
<header><CREATION_DATE/><ORIGINATOR/></header><body><segment><metadata><OBJECT_NAME>ONEWEB-0657</OBJECT_NAME><OBJECT_ID>2023-029Y</OBJECT_ID><CENTER_NAME>EARTH</CENTER_NAME><REF_FRAME>TEME</REF_FRAME><TIME_SYSTEM>UTC</TIME_SYSTEM><MEAN_ELEMENT_THEORY>SGP4</MEAN_ELEMENT_THEORY></metadata><data><meanElements><EPOCH>2025-04-26T18:18:40.951008</EPOCH><MEAN_MOTION>13.19725796</MEAN_MOTION><ECCENTRICITY>.0002094</ECCENTRICITY><INCLINATION>87.9264</INCLINATION><RA_OF_ASC_NODE>27.7624</RA_OF_ASC_NODE><ARG_OF_PERICENTER>102.0036</ARG_OF_PERICENTER><MEAN_ANOMALY>258.1331</MEAN_ANOMALY></meanElements><tleParameters><EPHEMERIS_TYPE>0</EPHEMERIS_TYPE><CLASSIFICATION_TYPE>U</CLASSIFICATION_TYPE><NORAD_CAT_ID>55818</NORAD_CAT_ID><ELEMENT_SET_NO>999</ELEMENT_SET_NO><REV_AT_EPOCH>10398</REV_AT_EPOCH><BSTAR>.25126E-3</BSTAR><MEAN_MOTION_DOT>.114E-5</MEAN_MOTION_DOT><MEAN_MOTION_DDOT>0</MEAN_MOTION_DDOT></tleParameters></data></segment></body></omm>
<omm id="CCSDS_OMM_VERS" version="2.0">
<header><CREATION_DATE/><ORIGINATOR/></header><body><segment><metadata><OBJECT_NAME>ONEWEB-0658</OBJECT_NAME><OBJECT_ID>2023-029Z</OBJECT_ID><CENTER_NAME>EARTH</CENTER_NAME><REF_FRAME>TEME</REF_FRAME><TIME_SYSTEM>UTC</TIME_SYSTEM><MEAN_ELEMENT_THEORY>SGP4</MEAN_ELEMENT_THEORY></metadata><data><meanElements><EPOCH>2025-04-27T10:34:26.084352</EPOCH><MEAN_MOTION>13.19727133</MEAN_MOTION><ECCENTRICITY>.0001345</ECCENTRICITY><INCLINATION>87.9262</INCLINATION><RA_OF_ASC_NODE>27.5618</RA_OF_ASC_NODE><ARG_OF_PERICENTER>75.0960</ARG_OF_PERICENTER><MEAN_ANOMALY>285.0321</MEAN_ANOMALY></meanElements><tleParameters><EPHEMERIS_TYPE>0</EPHEMERIS_TYPE><CLASSIFICATION_TYPE>U</CLASSIFICATION_TYPE><NORAD_CAT_ID>55819</NORAD_CAT_ID><ELEMENT_SET_NO>999</ELEMENT_SET_NO><REV_AT_EPOCH>10476</REV_AT_EPOCH><BSTAR>.79933E-4</BSTAR><MEAN_MOTION_DOT>.45E-6</MEAN_MOTION_DOT><MEAN_MOTION_DDOT>0</MEAN_MOTION_DDOT></tleParameters></data></segment></body></omm>
<omm id="CCSDS_OMM_VERS" version="2.0">
<header><CREATION_DATE/><ORIGINATOR/></header><body><segment><metadata><OBJECT_NAME>ONEWEB-0660</OBJECT_NAME><OBJECT_ID>2023-029AA</OBJECT_ID><CENTER_NAME>EARTH</CENTER_NAME><REF_FRAME>TEME</REF_FRAME><TIME_SYSTEM>UTC</TIME_SYSTEM><MEAN_ELEMENT_THEORY>SGP4</MEAN_ELEMENT_THEORY></metadata><data><meanElements><EPOCH>2025-04-26T18:17:49.690752</EPOCH><MEAN_MOTION>13.14503097</MEAN_MOTION><ECCENTRICITY>.0001765</ECCENTRICITY><INCLINATION>87.9085</INCLINATION><RA_OF_ASC_NODE>12.5097</RA_OF_ASC_NODE><ARG_OF_PERICENTER>66.7068</ARG_OF_PERICENTER><MEAN_ANOMALY>293.4247</MEAN_ANOMALY></meanElements><tleParameters><EPHEMERIS_TYPE>0</EPHEMERIS_TYPE><CLASSIFICATION_TYPE>U</CLASSIFICATION_TYPE><NORAD_CAT_ID>55820</NORAD_CAT_ID><ELEMENT_SET_NO>999</ELEMENT_SET_NO><REV_AT_EPOCH>10469</REV_AT_EPOCH><BSTAR>.45206E-3</BSTAR><MEAN_MOTION_DOT>.18E-5</MEAN_MOTION_DOT><MEAN_MOTION_DDOT>0</MEAN_MOTION_DDOT></tleParameters></data></segment></body></omm>
<omm id="CCSDS_OMM_VERS" version="2.0">
<header><CREATION_DATE/><ORIGINATOR/></header><body><segment><metadata><OBJECT_NAME>ONEWEB-0661</OBJECT_NAME><OBJECT_ID>2023-029AB</OBJECT_ID><CENTER_NAME>EARTH</CENTER_NAME><REF_FRAME>TEME</REF_FRAME><TIME_SYSTEM>UTC</TIME_SYSTEM><MEAN_ELEMENT_THEORY>SGP4</MEAN_ELEMENT_THEORY></metadata><data><meanElements><EPOCH>2025-04-26T17:18:27.127584</EPOCH><MEAN_MOTION>13.14502930</MEAN_MOTION><ECCENTRICITY>.0001878</ECCENTRICITY><INCLINATION>87.9091</INCLINATION><RA_OF_ASC_NODE>12.5882</RA_OF_ASC_NODE><ARG_OF_PERICENTER>69.3572</ARG_OF_PERICENTER><MEAN_ANOMALY>290.7759</MEAN_ANOMALY></meanElements><tleParameters><EPHEMERIS_TYPE>0</EPHEMERIS_TYPE><CLASSIFICATION_TYPE>U</CLASSIFICATION_TYPE><NORAD_CAT_ID>55821</NORAD_CAT_ID><ELEMENT_SET_NO>999</ELEMENT_SET_NO><REV_AT_EPOCH>10467</REV_AT_EPOCH><BSTAR>-.12642E-3</BSTAR><MEAN_MOTION_DOT>-.34E-6</MEAN_MOTION_DOT><MEAN_MOTION_DDOT>0</MEAN_MOTION_DDOT></tleParameters></data></segment></body></omm>
<omm id="CCSDS_OMM_VERS" version="2.0">
<header><CREATION_DATE/><ORIGINATOR/></header><body><segment><metadata><OBJECT_NAME>ONEWEB-0662</OBJECT_NAME><OBJECT_ID>2023-029AC</OBJECT_ID><CENTER_NAME>EARTH</CENTER_NAME><REF_FRAME>TEME</REF_FRAME><TIME_SYSTEM>UTC</TIME_SYSTEM><MEAN_ELEMENT_THEORY>SGP4</MEAN_ELEMENT_THEORY></metadata><data><meanElements><EPOCH>2025-04-26T18:08:41.237376</EPOCH><MEAN_MOTION>13.14502707</MEAN_MOTION><ECCENTRICITY>.0001676</ECCENTRICITY><INCLINATION>87.9088</INCLINATION><RA_OF_ASC_NODE>12.5878</RA_OF_ASC_NODE><ARG_OF_PERICENTER>68.1173</ARG_OF_PERICENTER><MEAN_ANOMALY>292.0135</MEAN_ANOMALY></meanElements><tleParameters><EPHEMERIS_TYPE>0</EPHEMERIS_TYPE><CLASSIFICATION_TYPE>U</CLASSIFICATION_TYPE><NORAD_CAT_ID>55822</NORAD_CAT_ID><ELEMENT_SET_NO>999</ELEMENT_SET_NO><REV_AT_EPOCH>10472</REV_AT_EPOCH><BSTAR>.12809E-4</BSTAR><MEAN_MOTION_DOT>.18E-6</MEAN_MOTION_DOT><MEAN_MOTION_DDOT>0</MEAN_MOTION_DDOT></tleParameters></data></segment></body></omm>
<omm id="CCSDS_OMM_VERS" version="2.0">
<header><CREATION_DATE/><ORIGINATOR/></header><body><segment><metadata><OBJECT_NAME>ONEWEB-0663</OBJECT_NAME><OBJECT_ID>2023-029AD</OBJECT_ID><CENTER_NAME>EARTH</CENTER_NAME><REF_FRAME>TEME</REF_FRAME><TIME_SYSTEM>UTC</TIME_SYSTEM><MEAN_ELEMENT_THEORY>SGP4</MEAN_ELEMENT_THEORY></metadata><data><meanElements><EPOCH>2025-04-26T16:14:42.972864</EPOCH><MEAN_MOTION>13.20834917</MEAN_MOTION><ECCENTRICITY>.0001555</ECCENTRICITY><INCLINATION>87.9311</INCLINATION><RA_OF_ASC_NODE>357.4047</RA_OF_ASC_NODE><ARG_OF_PERICENTER>67.4725</ARG_OF_PERICENTER><MEAN_ANOMALY>292.6573</MEAN_ANOMALY></meanElements><tleParameters><EPHEMERIS_TYPE>0</EPHEMERIS_TYPE><CLASSIFICATION_TYPE>U</CLASSIFICATION_TYPE><NORAD_CAT_ID>55823</NORAD_CAT_ID><ELEMENT_SET_NO>999</ELEMENT_SET_NO><REV_AT_EPOCH>10616</REV_AT_EPOCH><BSTAR>-.18443E-3</BSTAR><MEAN_MOTION_DOT>-.62E-6</MEAN_MOTION_DOT><MEAN_MOTION_DDOT>0</MEAN_MOTION_DDOT></tleParameters></data></segment></body></omm>
<omm id="CCSDS_OMM_VERS" version="2.0">
<header><CREATION_DATE/><ORIGINATOR/></header><body><segment><metadata><OBJECT_NAME>ONEWEB-0664</OBJECT_NAME><OBJECT_ID>2023-029AE</OBJECT_ID><CENTER_NAME>EARTH</CENTER_NAME><REF_FRAME>TEME</REF_FRAME><TIME_SYSTEM>UTC</TIME_SYSTEM><MEAN_ELEMENT_THEORY>SGP4</MEAN_ELEMENT_THEORY></metadata><data><meanElements><EPOCH>2025-04-26T21:47:22.214400</EPOCH><MEAN_MOTION>13.20773249</MEAN_MOTION><ECCENTRICITY>.0002171</ECCENTRICITY><INCLINATION>87.9312</INCLINATION><RA_OF_ASC_NODE>357.3789</RA_OF_ASC_NODE><ARG_OF_PERICENTER>74.8161</ARG_OF_PERICENTER><MEAN_ANOMALY>285.3213</MEAN_ANOMALY></meanElements><tleParameters><EPHEMERIS_TYPE>0</EPHEMERIS_TYPE><CLASSIFICATION_TYPE>U</CLASSIFICATION_TYPE><NORAD_CAT_ID>55824</NORAD_CAT_ID><ELEMENT_SET_NO>999</ELEMENT_SET_NO><REV_AT_EPOCH>10619</REV_AT_EPOCH><BSTAR>.15133E-3</BSTAR><MEAN_MOTION_DOT>.74E-6</MEAN_MOTION_DOT><MEAN_MOTION_DDOT>0</MEAN_MOTION_DDOT></tleParameters></data></segment></body></omm>

</ndm>
